OBJECT_NAME,OBJECT_ID,EPOCH,MEAN_MOTION,ECCENTRICITY,INCLINATION,RA_OF_ASC_NODE,ARG_OF_PERICENTER,MEAN_ANOMALY,EPHEMERIS_TYPE,CLASSIFICATION_TYPE,NORAD_CAT_ID,ELEMENT_SET_NO,REV_AT_EPOCH,BSTAR,MEAN_MOTION_DOT,MEAN_MOTION_DDOT
ASTRA 1N,2011-041A,2026-06-14T04:38:32.638848,1.00270111,.0005989,0.0911,43.0512,50.5928,257.6911,0,U,37775,999,4449,0,.128E-5,0
BSAT-3C (JCSAT-110R),2011-041B,2026-06-14T00:00:38.613024,1.00271868,.0000052,0.0160,359.6008,329.1252,43.7007,0,U,37776,999,5043,0,-.341E-5,0
PAKSAT-1R,2011-042A,2026-06-14T03:01:21.489024,1.00277016,.0002972,0.6808,84.6200,349.5557,271.6871,0,U,37779,999,5444,0,.162E-5,0
SES-2,2011-049A,2026-06-14T04:08:20.747904,1.00270868,.0002629,0.0569,104.9705,337.5824,155.0136,0,U,37809,999,5393,0,-.187E-5,0
ARABSAT-5C,2011-049B,2026-06-14T04:38:47.616288,1.00270436,.0003381,0.0499,9.9366,90.6892,251.5596,0,U,37810,999,5400,0,.132E-5,0
EUTELSAT 7 WEST A,2011-051A,2026-06-14T04:31:03.357120,1.00271099,.0004018,0.0621,7.4313,87.8470,227.6561,0,U,37816,999,5384,0,-.52E-6,0
QUETZSAT 1,2011-054A,2026-06-14T04:11:05.485056,1.00271067,.0002511,0.0166,24.5825,60.3872,163.2885,0,U,37826,999,4984,0,-.233E-5,0
INTELSAT 18 (IS-18),2011-056A,2026-06-14T01:58:59.998368,1.00271894,.0002013,0.0185,291.6517,169.2628,11.2341,0,U,37834,999,5378,0,.62E-6,0
EUTELSAT 16A,2011-057A,2026-06-14T04:37:40.224288,1.00273130,.0005969,0.0445,12.1897,73.9326,261.7827,0,U,37836,999,730,0,.113E-5,0
VIASAT-1,2011-059A,2026-06-13T16:01:27.267744,1.00272508,.00021237,0.0179,334.2333,107.8938,305.1138,0,U,37843,999,4728,0,-.13E-6,0
ASIASAT 7,2011-069A,2026-06-14T02:37:38.601120,1.00273152,.0001219,0.0229,67.1755,346.6752,353.4818,0,U,37933,999,4482,0,-.325E-5,0
BEIDOU-2 IGSO-5,2011-073A,2026-06-13T18:56:52.407744,1.00273385,.01138383,47.6849,271.5886,221.6054,144.8748,0,U,37948,999,5310,0,-.164E-5,0
LUCH-5A,2011-074B,2026-06-13T12:14:12.133824,1.00269799,.00021773,8.7444,73.8614,24.6507,153.8242,0,U,37951,999,5301,0,-.46E-6,0
NIGCOMSAT 1R,2011-077A,2026-06-14T03:02:36.369312,1.00273934,.0002348,0.0457,136.2737,211.0935,3.2291,0,U,38014,999,5292,0,.154E-5,0
WGS F4 (USA 233),2012-003A,2026-06-14T02:23:51.841248,1.00269134,.0000799,0.0236,7.5649,280.9478,98.2676,0,U,38070,999,4411,0,0,0
SES-4,2012-007A,2026-06-13T16:28:17.195232,1.00267567,.0002796,0.0242,27.5048,62.2969,37.2647,0,U,38087,999,5219,0,-.158E-5,0
BEIDOU-2 G5,2012-008A,2026-06-14T03:07:13.425600,1.00271009,.000914,3.5648,69.7157,273.1083,25.0708,0,U,38091,999,5233,0,.64E-6,0
MUOS-1,2012-009A,2026-06-14T04:04:36.107040,1.00270277,.0058728,5.4701,47.1581,1.6102,174.8628,0,U,38093,999,5241,0,-.123E-5,0
INTELSAT 22 (IS-22),2012-011A,2026-06-14T04:47:21.642720,1.00271227,.000158,0.0386,51.4002,46.6959,308.3274,0,U,38098,999,715,0,0,0
APSTAR-7,2012-013A,2026-06-14T01:29:35.915136,1.00269273,.0002402,0.0208,355.4524,100.1835,265.6177,0,U,38107,999,5177,0,0,0
YAHSAT 1B,2012-016A,2026-06-14T01:21:21.702816,1.00272038,.0002464,0.0920,90.4522,14.1606,225.6804,0,U,38245,999,4557,0,.136E-5,0
AEHF-2 (USA 235),2012-019A,2026-06-14T01:03:02.668032,1.00270003,.0002382,6.6438,57.5122,16.4466,187.6027,0,U,38254,999,695,0,-.132E-5,0
JCSAT-13,2012-023A,2026-06-14T00:00:27.679968,1.00270079,.000298,0.0172,356.9101,114.1171,275.4005,0,U,38331,999,5150,0,-.347E-5,0
VINASAT-2,2012-023B,2026-06-13T23:29:38.822784,1.00271945,.0002081,0.0155,3.7161,88.2211,294.6133,0,U,38332,999,4662,0,-.319E-5,0
NIMIQ 6,2012-026A,2026-06-14T04:07:05.866752,1.00270607,.0002448,0.0232,296.6385,146.3107,150.2007,0,U,38342,999,5038,0,-.165E-5,0
ZHONGXING-2A,2012-028A,2026-06-14T01:35:50.315712,1.00271470,.0003786,1.4449,83.9313,44.8049,255.8447,0,U,38352,999,5126,0,-.284E-5,0
INTELSAT 19 (IS-19),2012-030A,2026-06-14T03:37:47.225856,1.00270526,.0002818,0.0143,17.3417,73.0171,32.5403,0,U,38356,999,5042,0,-.48E-6,0
ECHOSTAR 17,2012-035A,2026-06-13T14:21:15.374304,1.00273226,.00019669,0.0265,6.2678,79.0165,284.8381,0,U,38551,999,5102,0,0,0
METEOSAT-10 (MSG-3),2012-035B,2026-06-14T01:07:52.996224,1.00276246,.0001428,4.6640,61.0333,328.3191,250.2757,0,U,38552,999,5082,0,.1E-7,0
SES-5,2012-036A,2026-06-14T01:09:15.363936,1.00270391,.0001817,0.0484,313.3989,135.3649,195.8798,0,U,38652,999,4442,0,.43E-6,0
INTELSAT 20 (IS-20),2012-043A,2026-06-14T04:56:57.687936,1.00269321,.0001513,0.0035,24.4085,152.8757,227.9786,0,U,38740,999,5071,0,-.15E-6,0
HYLAS 2,2012-043B,2026-06-14T04:41:38.580288,1.00270398,.0002404,2.4195,81.1042,25.9882,153.2554,0,U,38741,999,5074,0,-.251E-5,0
