ASTRA 1N                
1 37775U 11041A   26165.19343332  .00000128  00000+0  00000+0 0  9993
2 37775   0.0911  43.0512 0005989  50.5928 257.6911  1.00270111 44492
BSAT-3C (JCSAT-110R)    
1 37776U 11041B   26165.00044691 -.00000341  00000+0  00000+0 0  9998
2 37776   0.0160 359.6008 0000052 329.1252  43.7007  1.00271868 50437
PAKSAT-1R               
1 37779U 11042A   26165.12594316  .00000162  00000+0  00000+0 0  9999
2 37779   0.6808  84.6200 0002972 349.5557 271.6871  1.00277016 54448
SES-2                   
1 37809U 11049A   26165.17246236 -.00000187  00000+0  00000+0 0  9998
2 37809   0.0569 104.9705 0002629 337.5824 155.0136  1.00270868 53939
ARABSAT-5C              
1 37810U 11049B   26165.19360667  .00000132  00000+0  00000+0 0  9996
2 37810   0.0499   9.9366 0003381  90.6892 251.5596  1.00270436 54000
EUTELSAT 7 WEST A       
1 37816U 11051A   26165.18823330 -.00000052  00000+0  00000+0 0  9997
2 37816   0.0621   7.4313 0004018  87.8470 227.6561  1.00271099 53849
QUETZSAT 1              
1 37826U 11054A   26165.17436904 -.00000233  00000+0  00000+0 0  9998
2 37826   0.0166  24.5825 0002511  60.3872 163.2885  1.00271067 49844
INTELSAT 18 (IS-18)     
1 37834U 11056A   26165.08263887  .00000062  00000+0  00000+0 0  9996
2 37834   0.0185 291.6517 0002013 169.2628  11.2341  1.00271894 53789
EUTELSAT 16A            
1 37836U 11057A   26165.19282667  .00000113  00000+0  00000+0 0  9995
2 37836   0.0445  12.1897 0005969  73.9326 261.7827  1.00273130  7309
VIASAT-1                
1 37843U 11059A   26164.66767671 -.00000013  00000+0  00000+0 0  9999
2 37843   0.0179 334.2333 0002123 107.8938 305.1138  1.00272508 47286
ASIASAT 7               
1 37933U 11069A   26165.10947455 -.00000325  00000+0  00000+0 0  9996
2 37933   0.0229  67.1755 0001219 346.6752 353.4818  1.00273152 44828
BEIDOU-2 IGSO-5         
1 37948U 11073A   26164.78949546 -.00000164  00000+0  00000+0 0  9994
2 37948  47.6849 271.5886 0113838 221.6054 144.8748  1.00273385 53106
LUCH-5A                 
1 37951U 11074B   26164.50986266 -.00000046  00000+0  00000+0 0  9998
2 37951   8.7444  73.8614 0002177  24.6507 153.8242  1.00269799 53011
NIGCOMSAT 1R            
1 38014U 11077A   26165.12680983  .00000154  00000+0  00000+0 0  9997
2 38014   0.0457 136.2737 0002348 211.0935   3.2291  1.00273934 52925
WGS F4 (USA 233)        
1 38070U 12003A   26165.09990557  .00000000  00000+0  00000+0 0  9996
2 38070   0.0236   7.5649 0000799 280.9478  98.2676  1.00269134 44119
SES-4                   
1 38087U 12007A   26164.68631013 -.00000158  00000+0  00000+0 0  9996
2 38087   0.0242  27.5048 0002796  62.2969  37.2647  1.00267567 52190
BEIDOU-2 G5             
1 38091U 12008A   26165.13001650  .00000064  00000+0  00000+0 0  9996
2 38091   3.5648  69.7157 0009140 273.1083  25.0708  1.00271009 52337
MUOS-1                  
1 38093U 12009A   26165.16986235 -.00000123  00000+0  00000+0 0  9990
2 38093   5.4701  47.1581 0058728   1.6102 174.8628  1.00270277 52412
INTELSAT 22 (IS-22)     
1 38098U 12011A   26165.19955605  .00000000  00000+0  00000+0 0  9991
2 38098   0.0386  51.4002 0001580  46.6959 308.3274  1.00271227  7154
APSTAR-7                
1 38107U 12013A   26165.06222124  .00000000  00000+0  00000+0 0  9993
2 38107   0.0208 355.4524 0002402 100.1835 265.6177  1.00269273 51779
YAHSAT 1B               
1 38245U 12016A   26165.05650119  .00000136  00000+0  00000+0 0  9997
2 38245   0.0920  90.4522 0002464  14.1606 225.6804  1.00272038 45572
AEHF-2 (USA 235)        
1 38254U 12019A   26165.04378088 -.00000132  00000+0  00000+0 0  9998
2 38254   6.6438  57.5122 0002382  16.4466 187.6027  1.00270003  6959
JCSAT-13                
1 38331U 12023A   26165.00032037 -.00000347  00000+0  00000+0 0  9994
2 38331   0.0172 356.9101 0002980 114.1171 275.4005  1.00270079 51500
VINASAT-2               
1 38332U 12023B   26164.97892156 -.00000319  00000+0  00000+0 0  9995
2 38332   0.0155   3.7161 0002081  88.2211 294.6133  1.00271945 46628
NIMIQ 6                 
1 38342U 12026A   26165.17159568 -.00000165  00000+0  00000+0 0  9994
2 38342   0.0232 296.6385 0002448 146.3107 150.2007  1.00270607 50382
ZHONGXING-2A            
1 38352U 12028A   26165.06655458 -.00000284  00000+0  00000+0 0  9996
2 38352   1.4449  83.9313 0003786  44.8049 255.8447  1.00271470 51266
INTELSAT 19 (IS-19)     
1 38356U 12030A   26165.15124104 -.00000048  00000+0  00000+0 0  9990
2 38356   0.0143  17.3417 0002818  73.0171  32.5403  1.00270526 50427
ECHOSTAR 17             
1 38551U 12035A   26164.59809461  .00000000  00000+0  00000+0 0  9992
2 38551   0.0265   6.2678 0001966  79.0165 284.8381  1.00273226 51021
METEOSAT-10 (MSG-3)     
1 38552U 12035B   26165.04714116  .00000001  00000+0  00000+0 0  9997
2 38552   4.6640  61.0333 0001428 328.3191 250.2757  1.00276246 50824
SES-5                   
1 38652U 12036A   26165.04809449  .00000043  00000+0  00000+0 0  9999
2 38652   0.0484 313.3989 0001817 135.3649 195.8798  1.00270391 44420
INTELSAT 20 (IS-20)     
1 38740U 12043A   26165.20622324 -.00000015  00000+0  00000+0 0  9998
2 38740   0.0035  24.4085 0001513 152.8757 227.9786  1.00269321 50718
HYLAS 2                 
1 38741U 12043B   26165.19558542 -.00000251  00000+0  00000+0 0  9999
2 38741   2.4195  81.1042 0002404  25.9882 153.2554  1.00270398 50747
